{
  "norad_id": 64532,
  "name": "TRANSPORTER-14 OBJECT E",
  "history": [
    {
      "epoch": "2026-04-11T06:57:10.970784Z",
      "apogee_km": 494.85106327036283,
      "perigee_km": 487.68764632358125,
      "latitude_deg": 7.864107497111147e-05,
      "longitude_deg": -86.17855105983699,
      "height_km": 492.27605282822674,
      "semi_major_axis_km": 6869.406354796972,
      "eccentricity": 0.0005214,
      "inclination_deg": 97.4637,
      "raan_deg": 217.6285,
      "arg_perigee_deg": 54.4878,
      "mean_anomaly_deg": 305.6846,
      "mean_motion_rev_day": 15.24838858
    },
    {
      "epoch": "2026-04-13T06:12:03.098880Z",
      "apogee_km": 494.660644356788,
      "perigee_km": 487.6862334681591,
      "latitude_deg": 5.6311042230550325e-06,
      "longitude_deg": -74.87374215657648,
      "height_km": 491.9605673886915,
      "semi_major_axis_km": 6869.310438912473,
      "eccentricity": 0.00050765,
      "inclination_deg": 97.4642,
      "raan_deg": 219.5909,
      "arg_perigee_deg": 48.713,
      "mean_anomaly_deg": 311.4544,
      "mean_motion_rev_day": 15.24870795
    },
    {
      "epoch": "2026-04-14T19:59:54.593664Z",
      "apogee_km": 494.5305149338301,
      "perigee_km": 487.69973062293866,
      "latitude_deg": -2.8080084113007025e-05,
      "longitude_deg": 78.17950851897595,
      "height_km": 491.76274719421724,
      "semi_major_axis_km": 6869.252122778384,
      "eccentricity": 0.0004972,
      "inclination_deg": 97.465,
      "raan_deg": 221.161,
      "arg_perigee_deg": 44.3781,
      "mean_anomaly_deg": 315.7854,
      "mean_motion_rev_day": 15.24890213
    },
    {
      "epoch": "2026-04-15T19:37:18.480864Z",
      "apogee_km": 494.44208005932796,
      "perigee_km": 487.7171170093616,
      "latitude_deg": 1.0599825759318433e-05,
      "longitude_deg": 83.84110082753367,
      "height_km": 491.64736542692305,
      "semi_major_axis_km": 6869.2165985343445,
      "eccentricity": 0.0004895,
      "inclination_deg": 97.4654,
      "raan_deg": 222.1423,
      "arg_perigee_deg": 41.421,
      "mean_anomaly_deg": 318.7398,
      "mean_motion_rev_day": 15.24902042
    },
    {
      "epoch": "2026-04-16T17:40:12.199584Z",
      "apogee_km": 494.3569324383325,
      "perigee_km": 487.7295473428858,
      "latitude_deg": -4.746661830062282e-05,
      "longitude_deg": 113.12769248604745,
      "height_km": 491.547039755123,
      "semi_major_axis_km": 6869.180239890608,
      "eccentricity": 0.0004824,
      "inclination_deg": 97.4657,
      "raan_deg": 223.0582,
      "arg_perigee_deg": 38.7081,
      "mean_anomaly_deg": 321.4501,
      "mean_motion_rev_day": 15.24914149
    },
    {
      "epoch": "2026-04-17T18:52:04.284480Z",
      "apogee_km": 494.25338908104277,
      "perigee_km": 487.7495513946533,
      "latitude_deg": 2.1684423689166767e-05,
      "longitude_deg": 95.17252755216136,
      "height_km": 491.43977945798497,
      "semi_major_axis_km": 6869.138470237848,
      "eccentricity": 0.00047341,
      "inclination_deg": 97.466,
      "raan_deg": 224.1049,
      "arg_perigee_deg": 35.3672,
      "mean_anomaly_deg": 324.7879,
      "mean_motion_rev_day": 15.24928058
    },
    {
      "epoch": "2026-04-18T13:45:57.627360Z",
      "apogee_km": 494.1650199751384,
      "perigee_km": 487.7396738000607,
      "latitude_deg": 5.284114662071067e-05,
      "longitude_deg": 171.70924225903676,
      "height_km": 491.34376903148535,
      "semi_major_axis_km": 6869.089346887599,
      "eccentricity": 0.0004677,
      "inclination_deg": 97.4662,
      "raan_deg": 224.89,
      "arg_perigee_deg": 32.8459,
      "mean_anomaly_deg": 327.3069,
      "mean_motion_rev_day": 15.24944416
    },
    {
      "epoch": "2026-04-19T19:41:15.925344Z",
      "apogee_km": 494.0230077945489,
      "perigee_km": 487.7570813245011,
      "latitude_deg": -1.8854928358990274e-05,
      "longitude_deg": 82.89726638359627,
      "height_km": 491.2377247695964,
      "semi_major_axis_km": 6869.027044559524,
      "eccentricity": 0.0004561,
      "inclination_deg": 97.4665,
      "raan_deg": 226.1331,
      "arg_perigee_deg": 28.8758,
      "mean_anomaly_deg": 331.2731,
      "mean_motion_rev_day": 15.24965163
    },
    {
      "epoch": "2026-04-20T06:42:41.195808Z",
      "apogee_km": 493.98028908913057,
      "perigee_km": 487.77070179325165,
      "latitude_deg": -6.326054292792138e-06,
      "longitude_deg": -82.4526564006406,
      "height_km": 491.21005339779583,
      "semi_major_axis_km": 6869.012495441191,
      "eccentricity": 0.000452,
      "inclination_deg": 97.4665,
      "raan_deg": 226.5912,
      "arg_perigee_deg": 27.3881,
      "mean_anomaly_deg": 332.7594,
      "mean_motion_rev_day": 15.24970008
    },
    {
      "epoch": "2026-04-21T20:30:23.094144Z",
      "apogee_km": 493.77366139340756,
      "perigee_km": 487.770234972696,
      "latitude_deg": 9.868176384126164e-06,
      "longitude_deg": 70.64117692279098,
      "height_km": 491.08213173162375,
      "semi_major_axis_km": 6868.9089481830515,
      "eccentricity": 0.000437,
      "inclination_deg": 97.4664,
      "raan_deg": 228.1618,
      "arg_perigee_deg": 22.0602,
      "mean_anomaly_deg": 338.0823,
      "mean_motion_rev_day": 15.25004491
    },
    {
      "epoch": "2026-04-22T13:49:43.866624Z",
      "apogee_km": 493.7124008929841,
      "perigee_km": 487.7625818085762,
      "latitude_deg": 7.428559303210743e-06,
      "longitude_deg": 170.8130162588878,
      "height_km": 491.03955390828554,
      "semi_major_axis_km": 6868.87449135078,
      "eccentricity": 0.0004331,
      "inclination_deg": 97.4662,
      "raan_deg": 228.8816,
      "arg_perigee_deg": 20.2889,
      "mean_anomaly_deg": 339.852,
      "mean_motion_rev_day": 15.25015966
    },
    {
      "epoch": "2026-04-23T13:27:00.457344Z",
      "apogee_km": 493.6070107124433,
      "perigee_km": 487.7593093573978,
      "latitude_deg": -5.6899055738171916e-05,
      "longitude_deg": 176.50560331550219,
      "height_km": 490.9801196683099,
      "semi_major_axis_km": 6868.82016003492,
      "eccentricity": 0.00042567,
      "inclination_deg": 97.4662,
      "raan_deg": 229.8634,
      "arg_perigee_deg": 17.013,
      "mean_anomaly_deg": 343.1249,
      "mean_motion_rev_day": 15.2503406
    },
    {
      "epoch": "2026-04-24T20:56:41.115840Z",
      "apogee_km": 493.45519050033,
      "perigee_km": 487.75962763632924,
      "latitude_deg": -1.7395669413420768e-05,
      "longitude_deg": 64.10174781367911,
      "height_km": 490.91858181801854,
      "semi_major_axis_km": 6868.744409068329,
      "eccentricity": 0.0004146,
      "inclination_deg": 97.4663,
      "raan_deg": 231.1724,
      "arg_perigee_deg": 12.3104,
      "mean_anomaly_deg": 347.8234,
      "mean_motion_rev_day": 15.25059288
    },
    {
      "epoch": "2026-04-25T20:33:55.048032Z",
      "apogee_km": 493.3155998159473,
      "perigee_km": 487.73000566435803,
      "latitude_deg": 8.180558484936336e-05,
      "longitude_deg": 69.80532294732527,
      "height_km": 490.8549949514473,
      "semi_major_axis_km": 6868.659802740152,
      "eccentricity": 0.0004066,
      "inclination_deg": 97.4661,
      "raan_deg": 232.1541,
      "arg_perigee_deg": 8.5499,
      "mean_anomaly_deg": 351.5808,
      "mean_motion_rev_day": 15.25087466
    },
    {
      "epoch": "2026-04-26T20:11:07.501920Z",
      "apogee_km": 493.177001918325,
      "perigee_km": 487.7192241874927,
      "latitude_deg": -7.626489621054809e-07,
      "longitude_deg": 75.5149988579266,
      "height_km": 490.8258152022064,
      "semi_major_axis_km": 6868.585113052909,
      "eccentricity": 0.0003973,
      "inclination_deg": 97.4663,
      "raan_deg": 233.1357,
      "arg_perigee_deg": 5.4277,
      "mean_anomaly_deg": 354.7003,
      "mean_motion_rev_day": 15.25112342
    },
    {
      "epoch": "2026-04-27T19:48:18.499968Z",
      "apogee_km": 493.0536777492207,
      "perigee_km": 487.68113360310053,
      "latitude_deg": 6.396019328458094e-05,
      "longitude_deg": 81.23093848783886,
      "height_km": 490.7765518796537,
      "semi_major_axis_km": 6868.50440567616,
      "eccentricity": 0.0003911,
      "inclination_deg": 97.4665,
      "raan_deg": 234.1175,
      "arg_perigee_deg": 1.1998,
      "mean_anomaly_deg": 358.9249,
      "mean_motion_rev_day": 15.25139223
    }
  ]
}